SL-16 R/B               
1 19120U 88039B   16157.13641861  .00000131  00000-0  85528-4 0  9998
2 19120  71.0160  41.5976 0020375  41.9273 318.3407 14.19147906452891
COSMOS 1953             
1 19210U 88050A   16156.72639328  .00000512  00000-0  34171-4 0  9991
2 19210  82.5183  39.2158 0015344 105.4692 254.8231 15.04792945521069
SL-8 R/B                
1 19257U 88053B   16157.55190126  .00000135  00000-0  53758-4 0  9998
2 19257  74.0478 188.9196 0020295 176.6408 345.1340 14.37315919464656
COSMOS 1975             
1 19573U 88093A   16157.56043547  .00000894  00000-0  63005-4 0  9996
2 19573  82.5197 349.7381 0015570 136.9128 223.3320 15.03714662503202
SL-14 R/B               
1 19574U 88093B   16157.50185209  .00000129  00000-0  12841-4 0  9996
2 19574  82.5309 137.2289 0020108 279.2912 225.8066 14.83155773493616
SL-16 R/B               
1 19650U 88102B   16157.20560538  .00000233  00000-0  14295-3 0  9991
2 19650  71.0001  87.7721 0013096  29.3642 330.8214 14.15740423422638
INTERCOSMOS 24          
1 20261U 89080A   16157.26174331  .00000154  00000-0  45223-4 0  9993
2 20261  82.5973 254.0885 1203477 245.8897 101.1876 12.55768901218656
SL-14 R/B               
1 20262U 89080C   16156.52197602  .00000039  00000-0  40887-5 0  9992
2 20262  82.5929 297.9577 1237815  37.5937 330.5473 12.48813568214576
DELTA 1 R/B             
1 20323U 89089B   16157.55467528  .00000057  00000-0  23861-4 0  9992
2 20323  97.0644 157.9541 0071752 184.3372 175.7212 14.48123841400212
DELTA 2 R/B(1)          
1 20453U 90008B   16156.83069966  .00001924  00000-0  11293-3 0  9992
2 20453  35.6273 285.0692 0295323 272.9099  83.7857 14.81813530392170
COSMOS 2058             
1 20465U 90010A   16157.32249934  .00000587  00000-0  48292-4 0  9992
2 20465  82.4911 250.1064 0017136 121.3968 238.8934 14.97204395428948
SL-14 R/B               
1 20466U 90010B   16157.09635336  .00000136  00000-0  14293-4 0  9996
2 20466  82.5029   5.4188 0021666 134.1259 226.1742 14.81221984421672
SL-14 R/B               
1 20511U 90018B   16156.84478152  .00000139  00000-0  15323-4 0  9996
2 20511  82.5223 305.4878 0015964 270.5303 244.7947 14.79882882416255
HST                     
1 20580U 90037B   16155.94289103  .00000959  00000-0  48921-4 0  9999
2 20580  28.4707 346.1817 0002926  67.9369  50.0740 15.08380061233022
SL-16 R/B               
1 20625U 90046B   16156.55420428 -.00000293  00000-0 -12728-3 0  9992
2 20625  70.9991 221.6996 0016034 314.2179 143.4706 14.14598570344435
COSMOS 2084             
1 20663U 90055A   16156.81133480  .00000780  00000-0  85830-4 0  9996
2 20663  62.7940  47.3033 0123200  52.4772 308.7442 14.91219901403521
SL-6 R/B(2)             
1 20666U 90055D   16157.56805294  .00000431  00000-0  54181-4 0  9999
2 20666  62.7844 324.6418 0132850  72.1912 289.3624 14.91592433404993
SL-8 R/B                
1 20775U 90078B   16156.55943022  .00003669  00000-0  18237-3 0  9992
2 20775  82.9290 357.2082 0599537  63.7198 302.4309 14.28408858294815
SL-8 R/B                
1 21088U 91006B   16157.52976162  .00000073  00000-0  58997-4 0  9995
2 21088  82.9418 300.2210 0021258 296.1002 108.0989 13.77034691273760
OKEAN-3                 
1 21397U 91039A   16156.50096194  .00000548  00000-0  51060-4 0  9990
2 21397  82.5208 137.1006 0019584  62.6585 297.6625 14.92215925353453
COSMOS 2151             
1 21422U 91042A   16157.22320071  .00000389  00000-0  36097-4 0  9993
2 21422  82.5019 245.1092 0015867 111.4276 248.8638 14.91637241352300
SL-14 R/B               
1 21423U 91042B   16156.98780802  .00000098  00000-0  98854-5 0  9995
2 21423  82.4930 313.8852 0018792  49.4000 310.8844 14.79636430346806
ERS-1                   
1 21574U 91050A   16157.50212512  .00000074  00000-0  38932-4 0  9992
2 21574  98.4136 105.7122 0033216   2.8136 357.3232 14.37494523303479
ARIANE 40 R/B           
1 21610U 91050F   16156.17486404  .00000127  00000-0  53953-4 0  9997
2 21610  98.6569 203.2571 0003141  15.2681  52.2333 14.40737382305686
INTERCOSMOS 25          
1 21819U 91086A   16156.89944068  .00001417  00000-0  26995-3 0  9999
2 21819  82.5523 289.8236 1527300 169.4561 194.2832 12.04215401 66861
SL-14 R/B               
1 21820U 91086B   16157.54099329  .00000128  00000-0  23723-4 0  9990
2 21820  82.5600 340.6427 1577535 341.7102  13.2834 11.93165908 61868
SL-8 R/B                
1 21876U 92008B   16157.20405752  .00000031  00000-0  16793-4 0  9992
2 21876  82.9279  37.3866 0035085   8.9324 105.9708 13.75586777219551
SL-8 R/B                
1 21938U 92020B   16156.52968578  .00000064  00000-0  50693-4 0  9992
2 21938  82.9303 280.8276 0029697 163.4005 246.0120 13.75248635211389
SL-16 R/B               
1 22220U 92076B   16157.50031387  .00000178  00000-0  11348-3 0  9995
2 22220  70.9988 132.1417 0011245 133.9085   4.9750 14.16396979217439
SL-16 R/B               
1 22285U 92093B   16156.52584652  .00000171  00000-0  11287-3 0  9999
2 22285  71.0226 284.5099 0005271 320.3281  39.7455 14.14998307209112
COSMOS 2228             
1 22286U 92094A   16156.68912291  .00000387  00000-0  39965-4 0  9995
2 22286  82.5211   9.9596 0019249 296.6219  63.3025 14.87456284266371
SL-16 R/B               
1 22566U 93016B   16157.47030020  .00000206  00000-0  13131-3 0  9996
2 22566  71.0068 137.6628 0011150 335.4730  24.5861 14.14931094197987
COSMOS 2242             
1 22626U 93024A   16157.17932240  .00000382  00000-0  39362-4 0  9994
2 22626  82.5231  37.1821 0017722 294.4002  65.5365 14.87462758250103
SL-16 R/B               
1 22803U 93059B   16156.56096611  .00000044  00000-0  46040-4 0  9990
2 22803  70.9903 325.1638 0019232 243.8618 116.0527 14.16746084174793
ARIANE 40 R/B           
1 22830U 93061H   16156.54883345  .00000003  00000-0  18709-4 0  9995
2 22830  98.8857 157.1958 0010043 315.3177 152.8337 14.31409427184224
COSMOS 2278             
1 23087U 94023A   16157.14463397  .00000347  00000-0  20820-3 0  9994
2 23087  71.0544  66.9920 0007308  67.3117 292.8778 14.13716588141203
SL-16 R/B               
1 23088U 94023B   16156.54038803 -.00000241  00000-0 -10042-3 0  9998
2 23088  70.9994 354.6762 0005149 295.4525  64.6064 14.14639042142136
SL-16 R/B               
1 23343U 94074B   16157.18414823  .00000026  00000-0  11358-4 0  9990
2 23343  98.1939 183.5088 0006596 190.3526 211.4076 14.76658155161198
SL-16 R/B               
1 23405U 94077B   16156.47710944  .00000260  00000-0  15864-3 0  9991
2 23405  70.9835 289.5221 0003279 213.8504 146.2409 14.15182685112079
ERS-2                   
1 23560U 95021A   16157.46456983  .00002656  00000-0  13086-3 0  9998
2 23560  98.5140  94.7411 0004876 128.1914 231.9757 15.19030329118166
ARIANE 40+ R/B          
1 23561U 95021B   16157.08143155  .00000071  00000-0  38879-4 0  9998
2 23561  98.7694 144.0575 0005951 300.7598 106.0829 14.37742438107063
SL-16 R/B               
1 23705U 95058B   16156.83614025 -.00000270  00000-0 -11458-3 0  9995
2 23705  71.0206 100.7263 0011795 163.4532 196.6978 14.15083467 63803
SL-16 R/B               
1 24298U 96051B   16156.47241688  .00000040  00000-0  47995-4 0  9997
2 24298  70.8343 138.2439 0013572  14.8241 345.3274 14.12403886 18486
ORBVIEW 2 (SEASTAR)     
1 24883U 97037A   16156.39568692  .00000067  00000-0  39998-4 0  9993
2 24883  98.5203 264.5396 0003295 129.0863 231.0615 14.33319324997788
SL-16 R/B               
1 25400U 98043G   16157.47305895 -.00000012  00000-0  12817-4 0  9993
2 25400  98.4372 112.8515 0009138 324.4637  35.5934 14.25382552931402
SL-16 R/B               
1 25407U 98045B   16156.85436145  .00000233  00000-0  14284-3 0  9999
2 25407  71.0107 114.3725 0005966  53.0120 307.1548 14.15744800922775
ISS (ZARYA)             
1 25544U 98067A   16157.40171624  .00002789  00000-0  48280-4 0  9997
2 25544  51.6429 116.8177 0001566 143.7535 358.2805 15.54748953  3157
SL-8 R/B                
1 25723U 99022C   16156.81761769  .00007385  00000-0  14387-3 0  9994
2 25723  48.4190  11.0382 0010903  17.4017  43.1603 15.48456539947901
CZ-4B R/B               
1 25732U 99025C   16156.85910230 -.00000008  00000-0  18366-4 0  9998
2 25732  98.9719 148.4095 0038477  85.5296 335.6054 14.17609660883172
OKEAN-O                 
1 25860U 99039A   16157.46518846  .00000172  00000-0  32369-4 0  9990
2 25860  98.1427 132.2255 0000856  89.4804 270.6504 14.76360808908246
SL-16 R/B               
1 25861U 99039B   16156.97010189  .00000092  00000-0  19960-4 0  9996
2 25861  98.0525 121.0260 0014902 212.6125 188.8027 14.78321753910049
TERRA                   
1 25994U 99068A   16157.20971026  .00000286  00000-0  73517-4 0  9991
2 25994  98.2117 231.6773 0001327 111.9665 248.1670 14.57105544875778
SL-14 R/B               
1 26874U 01032B   16157.54172268  .00020395  00000-0  10660-3 0  9993
2 26874  82.4602 294.6185 0006190 236.6699 123.3976 15.80649957833800
ENVISAT                 
1 27386U 02009A   16157.50273045  .00000000  00000-0  13955-4 0  9990
2 27386  98.2845 211.3411 0001204  82.8546 277.2780 14.37867702746945
IDEFIX & ARIANE 42P R/B 
1 27422U 02021B   16156.68138673  .00000014  00000-0  21661-4 0  9998
2 27422  98.2304 171.8953 0010953 276.6019  83.3918 14.29243860732753
AQUA                    
1 27424U 02022A   16157.51355491  .00000171  00000-0  47890-4 0  9999
2 27424  98.1989  98.2373 0001154 120.9771 293.1191 14.57117819749421
CZ-4B R/B               
1 27432U 02024C   16157.52889450 -.00000005  00000-0  20523-4 0  9999
2 27432  98.9354 124.0734 0050928  19.9940  88.0282 14.14016905725569
MIDORI II (ADEOS-II)    
1 27597U 02056A   16157.44858972  .00000064  00000-0  42858-4 0  9991
2 27597  98.3208 138.1228 0001659  50.1696 309.9632 14.27214607701683
H-2A R/B                
1 27601U 02056E   16157.23582551  .00000063  00000-0  38755-4 0  9991
2 27601  98.4188 231.1077 0071551 333.3187  91.7367 14.31715583703870
